{
  "type": "FeatureCollection",
  "features": [
    {
      "type": "Feature",
      "properties": {
        "norad_id": 31235,
        "name": "FENGYUN 1C DEB",
        "group": "fengyun-1c-debris",
        "lat": 7.733643020707604,
        "lon": -30.9738266813708,
        "alt_km": 959.1209850672876,
        "timestamp": "2025-12-26T04:40:06.067827+00:00",
        "meta_object_name": "FENGYUN 1C DEB",
        "meta_object_id": "1999-025BLR",
        "meta_epoch": "2025-12-24T02:46:21.503424",
        "meta_mean_motion": 14.18770202,
        "meta_eccentricity": 0.01798593,
        "meta_inclination": 98.4674,
        "meta_ra_of_asc_node": 145.8804,
        "meta_arg_of_pericenter": 348.7908,
        "meta_mean_anomaly": 10.9286,
        "meta_ephemeris_type": 0,
        "meta_classification_type": "U",
        "meta_norad_cat_id": 31235,
        "meta_element_set_no": 999,
        "meta_rev_at_epoch": 63328,
        "meta_bstar": 0.0032766626,
        "meta_mean_motion_dot": 7.96e-05,
        "meta_mean_motion_ddot": 0,
        "tle_line1": "1 31235U 99025BLR 25358.11552666  .00007960  00000+0  32767-2 0  9992",
        "tle_line2": "2 31235  98.4674 145.8804 0179859 348.7908  10.9286 14.18770202633282"
      },
      "geometry": {
        "type": "Point",
        "coordinates": [
          -30.9738266813708,
          7.733643020707604
        ]
      }
    },
    {
      "type": "Feature",
      "properties": {
        "norad_id": 31236,
        "name": "FENGYUN 1C DEB",
        "group": "fengyun-1c-debris",
        "lat": -73.97655924690828,
        "lon": 102.69447085863688,
        "alt_km": 1036.364047797998,
        "timestamp": "2025-12-26T04:40:06.067838+00:00",
        "meta_object_name": "FENGYUN 1C DEB",
        "meta_object_id": "1999-025BLS",
        "meta_epoch": "2025-12-23T19:59:02.166144",
        "meta_mean_motion": 13.86019444,
        "meta_eccentricity": 0.03149414,
        "meta_inclination": 98.5455,
        "meta_ra_of_asc_node": 312.105,
        "meta_arg_of_pericenter": 16.5726,
        "meta_mean_anomaly": 344.545,
        "meta_ephemeris_type": 0,
        "meta_classification_type": "U",
        "meta_norad_cat_id": 31236,
        "meta_element_set_no": 999,
        "meta_rev_at_epoch": 61178,
        "meta_bstar": 0.0059238181,
        "meta_mean_motion_dot": 0.00010034,
        "meta_mean_motion_ddot": 0,
        "tle_line1": "1 31236U 99025BLS 25357.83266396  .00010034  00000+0  59238-2 0  9991",
        "tle_line2": "2 31236  98.5455 312.1050 0314941  16.5726 344.5450 13.86019444611782"
      },
      "geometry": {
        "type": "Point",
        "coordinates": [
          102.69447085863688,
          -73.97655924690828
        ]
      }
    },
    {
      "type": "Feature",
      "properties": {
        "norad_id": 31237,
        "name": "FENGYUN 1C DEB",
        "group": "fengyun-1c-debris",
        "lat": -45.920151916759295,
        "lon": 169.8662371269273,
        "alt_km": 784.9082020511314,
        "timestamp": "2025-12-26T04:40:06.067848+00:00",
        "meta_object_name": "FENGYUN 1C DEB",
        "meta_object_id": "1999-025BLT",
        "meta_epoch": "2025-12-25T05:47:46.972032",
        "meta_mean_motion": 14.31427957,
        "meta_eccentricity": 0.0088353,
        "meta_inclination": 98.454,
        "meta_ra_of_asc_node": 357.773,
        "meta_arg_of_pericenter": 311.8398,
        "meta_mean_anomaly": 47.5266,
        "meta_ephemeris_type": 0,
        "meta_classification_type": "U",
        "meta_norad_cat_id": 31237,
        "meta_element_set_no": 999,
        "meta_rev_at_epoch": 97445,
        "meta_bstar": 0.00057423,
        "meta_mean_motion_dot": 1.547e-05,
        "meta_mean_motion_ddot": 0,
        "tle_line1": "1 31237U 99025BLT 25359.24151588  .00001547  00000+0  57423-3 0  9999",
        "tle_line2": "2 31237  98.4540 357.7730 0088353 311.8398  47.5266 14.31427957974452"
      },
      "geometry": {
        "type": "Point",
        "coordinates": [
          169.8662371269273,
          -45.920151916759295
        ]
      }
    },
    {
      "type": "Feature",
      "properties": {
        "norad_id": 31239,
        "name": "FENGYUN 1C DEB",
        "group": "fengyun-1c-debris",
        "lat": 77.66493795184908,
        "lon": -140.39402437051896,
        "alt_km": 834.9654917711614,
        "timestamp": "2025-12-26T04:40:06.067858+00:00",
        "meta_object_name": "FENGYUN 1C DEB",
        "meta_object_id": "1999-025BLV",
        "meta_epoch": "2025-12-25T11:53:33.271872",
        "meta_mean_motion": 14.09877493,
        "meta_eccentricity": 0.004991,
        "meta_inclination": 98.7588,
        "meta_ra_of_asc_node": 354.0953,
        "meta_arg_of_pericenter": 161.9295,
        "meta_mean_anomaly": 351.477,
        "meta_ephemeris_type": 0,
        "meta_classification_type": "U",
        "meta_norad_cat_id": 31239,
        "meta_element_set_no": 999,
        "meta_rev_at_epoch": 96191,
        "meta_bstar": 0.00030306,
        "meta_mean_motion_dot": 4.97e-06,
        "meta_mean_motion_ddot": 0,
        "tle_line1": "1 31239U 99025BLV 25359.49552398  .00000497  00000+0  30306-3 0  9996",
        "tle_line2": "2 31239  98.7588 354.0953 0049910 161.9295 351.4770 14.09877493961915"
      },
      "geometry": {
        "type": "Point",
        "coordinates": [
          -140.39402437051896,
          77.66493795184908
        ]
      }
    },
    {
      "type": "Feature",
      "properties": {
        "norad_id": 31241,
        "name": "FENGYUN 1C DEB",
        "group": "fengyun-1c-debris",
        "lat": 65.65862221638412,
        "lon": 126.95343635582788,
        "alt_km": 743.1444960891213,
        "timestamp": "2025-12-26T04:40:06.067868+00:00",
        "meta_object_name": "FENGYUN 1C DEB",
        "meta_object_id": "1999-025BLX",
        "meta_epoch": "2025-12-25T21:40:43.645152",
        "meta_mean_motion": 14.38743196,
        "meta_eccentricity": 0.00670622,
        "meta_inclination": 99.2357,
        "meta_ra_of_asc_node": 147.7201,
        "meta_arg_of_pericenter": 142.8246,
        "meta_mean_anomaly": 217.7611,
        "meta_ephemeris_type": 0,
        "meta_classification_type": "U",
        "meta_norad_cat_id": 31241,
        "meta_element_set_no": 999,
        "meta_rev_at_epoch": 97880,
        "meta_bstar": 0.00055396955,
        "meta_mean_motion_dot": 1.696e-05,
        "meta_mean_motion_ddot": 0,
        "tle_line1": "1 31241U 99025BLX 25359.90328293  .00001696  00000+0  55397-3 0  9999",
        "tle_line2": "2 31241  99.2357 147.7201 0067062 142.8246 217.7611 14.38743196978801"
      },
      "geometry": {
        "type": "Point",
        "coordinates": [
          126.95343635582788,
          65.65862221638412
        ]
      }
    },
    {
      "type": "Feature",
      "properties": {
        "norad_id": 31243,
        "name": "FENGYUN 1C DEB",
        "group": "fengyun-1c-debris",
        "lat": -80.62052931448792,
        "lon": 151.23307209299168,
        "alt_km": 910.561702082834,
        "timestamp": "2025-12-26T04:40:06.067878+00:00",
        "meta_object_name": "FENGYUN 1C DEB",
        "meta_object_id": "1999-025BLZ",
        "meta_epoch": "2025-12-23T13:58:38.376768",
        "meta_mean_motion": 14.07196727,
        "meta_eccentricity": 0.00662588,
        "meta_inclination": 98.7491,
        "meta_ra_of_asc_node": 37.4986,
        "meta_arg_of_pericenter": 138.173,
        "meta_mean_anomaly": 222.453,
        "meta_ephemeris_type": 0,
        "meta_classification_type": "U",
        "meta_norad_cat_id": 31243,
        "meta_element_set_no": 999,
        "meta_rev_at_epoch": 69460,
        "meta_bstar": 0.00056007275,
        "meta_mean_motion_dot": 9.15e-06,
        "meta_mean_motion_ddot": 0,
        "tle_line1": "1 31243U 99025BLZ 25357.58238862  .00000915  00000+0  56007-3 0  9997",
        "tle_line2": "2 31243  98.7491  37.4986 0066258 138.1730 222.4530 14.07196727694607"
      },
      "geometry": {
        "type": "Point",
        "coordinates": [
          151.23307209299168,
          -80.62052931448792
        ]
      }
    },
    {
      "type": "Feature",
      "properties": {
        "norad_id": 31244,
        "name": "FENGYUN 1C DEB",
        "group": "fengyun-1c-debris",
        "lat": -64.59447601090186,
        "lon": -135.7858130833072,
        "alt_km": 902.3132509497709,
        "timestamp": "2025-12-26T04:40:06.067888+00:00",
        "meta_object_name": "FENGYUN 1C DEB",
        "meta_object_id": "1999-025BMA",
        "meta_epoch": "2025-12-22T10:42:55.008864",
        "meta_mean_motion": 14.0626394,
        "meta_eccentricity": 0.01029519,
        "meta_inclination": 99.0337,
        "meta_ra_of_asc_node": 60.0445,
        "meta_arg_of_pericenter": 148.0726,
        "meta_mean_anomaly": 212.6736,
        "meta_ephemeris_type": 0,
        "meta_classification_type": "U",
        "meta_norad_cat_id": 31244,
        "meta_element_set_no": 999,
        "meta_rev_at_epoch": 57776,
        "meta_bstar": 0.00030551963,
        "meta_mean_motion_dot": 4.84e-06,
        "meta_mean_motion_ddot": 0,
        "tle_line1": "1 31244U 99025BMA 25356.44647001  .00000484  00000+0  30552-3 0  9999",
        "tle_line2": "2 31244  99.0337  60.0445 0102951 148.0726 212.6736 14.06263940577766"
      },
      "geometry": {
        "type": "Point",
        "coordinates": [
          -135.7858130833072,
          -64.59447601090186
        ]
      }
    }
  ]
}